start=new Date('2022-01-08T00:00:00.000Z').valueOf();
sats=[{"COUNTRY_CODE":"US","REF_FRAME":"TEME","ECCENTRICITY":"0.00014430","OBJECT_NAME":"STARLINK-1673","EPOCH":"2022-01-07T11:24:52.779168","APOAPSIS":"548.230","CLASSIFICATION_TYPE":"U","CENTER_NAME":"EARTH","LAUNCH_DATE":"2020-09-03","PERIOD":"95.593","MEAN_MOTION_DDOT":"0.0000000000000","TIME_SYSTEM":"UTC","SEMIMAJOR_AXIS":"6925.366","BSTAR":"0.00000316170000","NORAD_CAT_ID":"46327","REV_AT_EPOCH":"7487","MEAN_ANOMALY":"297.5211","RA_OF_ASC_NODE":"10.1132","RCS_SIZE":"LARGE","ELEMENT_SET_NO":"999","MEAN_MOTION":"15.06394280","MEAN_ELEMENT_THEORY":"SGP4","SITE":"AFETR","OBJECT_ID":"2020-062C","EPHEMERIS_TYPE":"0","INCLINATION":"53.0561","FILE":"3266507","GP_ID":"193394620","TLE_LINE1":"1 46327U 20062C   22007.47561087 -.00000234  00000-0  31617-5 0  9994","MEAN_MOTION_DOT":"-0.00000234","PERIAPSIS":"546.232","TLE_LINE2":"2 46327  53.0561  10.1132 0001443  62.5925 297.5211 15.06394280 74874","ARG_OF_PERICENTER":"62.5925","OBJECT_TYPE":"PAYLOAD","DECAY_DATE":null},{"COUNTRY_CODE":"US","REF_FRAME":"TEME","ECCENTRICITY":"0.00015840","OBJECT_NAME":"STARLINK-1686","CLASSIFICATION_TYPE":"U","APOAPSIS":"548.325","EPOCH":"2022-01-07T22:04:27.699456","PERIOD":"95.592","LAUNCH_DATE":"2020-09-03","CENTER_NAME":"EARTH","NORAD_CAT_ID":"46328","SEMIMAJOR_AXIS":"6925.364","BSTAR":"0.00004114400000","TIME_SYSTEM":"UTC","MEAN_MOTION_DDOT":"0.0000000000000","RCS_SIZE":"LARGE","MEAN_ANOMALY":"294.9054","RA_OF_ASC_NODE":"348.1108","REV_AT_EPOCH":"7522","ELEMENT_SET_NO":"999","MEAN_ELEMENT_THEORY":"SGP4","MEAN_MOTION":"15.06395120","EPHEMERIS_TYPE":"0","OBJECT_ID":"2020-062D","SITE":"AFETR","INCLINATION":"53.0560","TLE_LINE1":"1 46328U 20062D   22007.91976504  .00000331  00000-0  41144-4 0  9990","GP_ID":"193424850","FILE":"3266804","TLE_LINE2":"2 46328  53.0560 348.1108 0001584  65.2100 294.9054 15.06395120 75222","PERIAPSIS":"546.132","MEAN_MOTION_DOT":"0.00000331","ARG_OF_PERICENTER":"65.2100","DECAY_DATE":null,"OBJECT_TYPE":"PAYLOAD"},{"GP_ID":"193393119","FILE":"3266507","TLE_LINE1":"1 46329U 20062E   22007.28947166 -.00000163  00000-0  79465-5 0  9995","INCLINATION":"53.0557","OBJECT_ID":"2020-062E","SITE":"AFETR","EPHEMERIS_TYPE":"0","MEAN_MOTION":"15.06393045","MEAN_ELEMENT_THEORY":"SGP4","DECAY_DATE":null,"OBJECT_TYPE":"PAYLOAD","ARG_OF_PERICENTER":"66.2809","TLE_LINE2":"2 46329  53.0557 350.9340 0001752  66.2809 293.8363 15.06393045 75126","PERIAPSIS":"546.022","MEAN_MOTION_DOT":"-0.00000163","CENTER_NAME":"EARTH","LAUNCH_DATE":"2020-09-03","PERIOD":"95.593","EPOCH":"2022-01-07T06:56:50.351424","CLASSIFICATION_TYPE":"U","APOAPSIS":"548.448","OBJECT_NAME":"STARLINK-1695","ECCENTRICITY":"0.00017520","COUNTRY_CODE":"US","REF_FRAME":"TEME","ELEMENT_SET_NO":"999","MEAN_ANOMALY":"293.8363","RA_OF_ASC_NODE":"350.9340","REV_AT_EPOCH":"7512","RCS_SIZE":"LARGE","MEAN_MOTION_DDOT":"0.0000000000000","TIME_SYSTEM":"UTC","NORAD_CAT_ID":"46329","SEMIMAJOR_AXIS":"6925.370","BSTAR":"0.00000794650000"},{"INCLINATION":"53.0553","TLE_LINE1":"1 46330U 20062F   22007.67649559 -.00000423  00000-0 -95262-5 0  9998","GP_ID":"193425115","FILE":"3266804","MEAN_ELEMENT_THEORY":"SGP4","MEAN_MOTION":"15.06392749","EPHEMERIS_TYPE":"0","OBJECT_ID":"2020-062F","SITE":"AFETR","ARG_OF_PERICENTER":"67.1926","DECAY_DATE":null,"OBJECT_TYPE":"PAYLOAD","TLE_LINE2":"2 46330  53.0553 349.1978 0001690  67.1926 292.9241 15.06392749 75194","PERIAPSIS":"546.065","MEAN_MOTION_DOT":"-0.00000423","APOAPSIS":"548.406","CLASSIFICATION_TYPE":"U","EPOCH":"2022-01-07T16:14:09.218976","PERIOD":"95.593","LAUNCH_DATE":"2020-09-03","CENTER_NAME":"EARTH","REF_FRAME":"TEME","COUNTRY_CODE":"US","ECCENTRICITY":"0.00016900","OBJECT_NAME":"STARLINK-1710","RCS_SIZE":"LARGE","MEAN_ANOMALY":"292.9241","RA_OF_ASC_NODE":"349.1978","REV_AT_EPOCH":"7519","ELEMENT_SET_NO":"999","NORAD_CAT_ID":"46330","SEMIMAJOR_AXIS":"6925.371","BSTAR":"-0.00000952620000","TIME_SYSTEM":"UTC","MEAN_MOTION_DDOT":"0.0000000000000"},{"ELEMENT_SET_NO":"999","MEAN_ANOMALY":"283.9215","RA_OF_ASC_NODE":"9.0572","REV_AT_EPOCH":"7491","RCS_SIZE":"LARGE","MEAN_MOTION_DDOT":"0.0000000000000","TIME_SYSTEM":"UTC","NORAD_CAT_ID":"46331","SEMIMAJOR_AXIS":"6925.372","BSTAR":"0.00000191500000","CENTER_NAME":"EARTH","LAUNCH_DATE":"2020-09-03","PERIOD":"95.593","EPOCH":"2022-01-07T17:04:34.722336","APOAPSIS":"548.312","CLASSIFICATION_TYPE":"U","OBJECT_NAME":"STARLINK-1719","ECCENTRICITY":"0.00015530","COUNTRY_CODE":"US","REF_FRAME":"TEME","DECAY_DATE":null,"OBJECT_TYPE":"PAYLOAD","ARG_OF_PERICENTER":"76.1947","TLE_LINE2":"2 46331  53.0565   9.0572 0001553  76.1947 283.9215 15.06392455 74915","PERIAPSIS":"546.161","MEAN_MOTION_DOT":"-0.00000253","GP_ID":"193425364","FILE":"3266804","TLE_LINE1":"1 46331U 20062G   22007.71151299 -.00000253  00000-0  19150-5 0  9995","INCLINATION":"53.0565","OBJECT_ID":"2020-062G","SITE":"AFETR","EPHEMERIS_TYPE":"0","MEAN_MOTION":"15.06392455","MEAN_ELEMENT_THEORY":"SGP4"},{"TIME_SYSTEM":"UTC","MEAN_MOTION_DDOT":"0.0000000000000","NORAD_CAT_ID":"46332","SEMIMAJOR_AXIS":"6925.365","BSTAR":"0.00009713900000","ELEMENT_SET_NO":"999","MEAN_ANOMALY":"299.3188","RA_OF_ASC_NODE":"8.9909","REV_AT_EPOCH":"7491","RCS_SIZE":"LARGE","OBJECT_NAME":"STARLINK-1721","COUNTRY_CODE":"US","REF_FRAME":"TEME","ECCENTRICITY":"0.00016380","CENTER_NAME":"EARTH","PERIOD":"95.592","LAUNCH_DATE":"2020-09-03","EPOCH":"2022-01-07T17:20:29.559840","CLASSIFICATION_TYPE":"U","APOAPSIS":"548.365","PERIAPSIS":"546.096","TLE_LINE2":"2 46332  53.0564   8.9909 0001638  60.7965 299.3188 15.06394538 74914","MEAN_MOTION_DOT":"0.00001165","DECAY_DATE":null,"OBJECT_TYPE":"PAYLOAD","ARG_OF_PERICENTER":"60.7965","OBJECT_ID":"2020-062H","SITE":"AFETR","EPHEMERIS_TYPE":"0","MEAN_MOTION":"15.06394538","MEAN_ELEMENT_THEORY":"SGP4","GP_ID":"193424351","FILE":"3266804","TLE_LINE1":"1 46332U 20062H   22007.72256435  .00001165  00000-0  97139-4 0  9999","INCLINATION":"53.0564"},{"OBJECT_TYPE":"PAYLOAD","DECAY_DATE":null,"ARG_OF_PERICENTER":"75.9126","MEAN_MOTION_DOT":"-0.00000142","TLE_LINE2":"2 46333  53.0558   8.9361 0001570  75.9126 284.2037 15.06397036 74914","PERIAPSIS":"546.135","FILE":"3266804","GP_ID":"193424366","TLE_LINE1":"1 46333U 20062J   22007.73731009 -.00000142  00000-0  93794-5 0  9995","INCLINATION":"53.0558","SITE":"AFETR","OBJECT_ID":"2020-062J","EPHEMERIS_TYPE":"0","MEAN_MOTION":"15.06397036","MEAN_ELEMENT_THEORY":"SGP4","ELEMENT_SET_NO":"999","REV_AT_EPOCH":"7491","RA_OF_ASC_NODE":"8.9361","MEAN_ANOMALY":"284.2037","RCS_SIZE":"LARGE","MEAN_MOTION_DDOT":"0.0000000000000","TIME_SYSTEM":"UTC","SEMIMAJOR_AXIS":"6925.358","BSTAR":"0.00000937940000","NORAD_CAT_ID":"46333","CENTER_NAME":"EARTH","PERIOD":"95.592","LAUNCH_DATE":"2020-09-03","EPOCH":"2022-01-07T17:41:43.591776","APOAPSIS":"548.310","CLASSIFICATION_TYPE":"U","OBJECT_NAME":"STARLINK-1723","ECCENTRICITY":"0.00015700","COUNTRY_CODE":"US","REF_FRAME":"TEME"},{"ARG_OF_PERICENTER":"62.8764","OBJECT_TYPE":"PAYLOAD","DECAY_DATE":null,"MEAN_MOTION_DOT":"-0.00000782","TLE_LINE2":"2 46334  53.0557 348.1390 0001776  62.8764 297.2406 15.06390342 75228","PERIAPSIS":"546.013","INCLINATION":"53.0557","FILE":"3266804","GP_ID":"193424616","TLE_LINE1":"1 46334U 20062K   22007.91145044 -.00000782  00000-0 -33608-4 0  9992","MEAN_MOTION":"15.06390342","MEAN_ELEMENT_THEORY":"SGP4","SITE":"AFETR","OBJECT_ID":"2020-062K","EPHEMERIS_TYPE":"0","REV_AT_EPOCH":"7522","RA_OF_ASC_NODE":"348.1390","MEAN_ANOMALY":"297.2406","RCS_SIZE":"LARGE","ELEMENT_SET_NO":"999","TIME_SYSTEM":"UTC","MEAN_MOTION_DDOT":"0.0000000000000","SEMIMAJOR_AXIS":"6925.378","BSTAR":"-0.00003360800000","NORAD_CAT_ID":"46334","EPOCH":"2022-01-07T21:52:29.318016","CLASSIFICATION_TYPE":"U","APOAPSIS":"548.473","CENTER_NAME":"EARTH","PERIOD":"95.593","LAUNCH_DATE":"2020-09-03","COUNTRY_CODE":"US","REF_FRAME":"TEME","ECCENTRICITY":"0.00017760","OBJECT_NAME":"STARLINK-1725"},{"OBJECT_NAME":"STARLINK-1727","COUNTRY_CODE":"US","ECCENTRICITY":"0.00015630","REF_FRAME":"TEME","CENTER_NAME":"EARTH","LAUNCH_DATE":"2020-09-03","PERIOD":"95.592","EPOCH":"2022-01-07T16:48:39.070944","APOAPSIS":"548.311","CLASSIFICATION_TYPE":"U","TIME_SYSTEM":"UTC","MEAN_MOTION_DDOT":"0.0000000000000","NORAD_CAT_ID":"46335","SEMIMAJOR_AXIS":"6925.364","BSTAR":"0.00003283600000","ELEMENT_SET_NO":"999","MEAN_ANOMALY":"292.6928","RA_OF_ASC_NODE":"9.0897","REV_AT_EPOCH":"7491","RCS_SIZE":"LARGE","OBJECT_ID":"2020-062L","SITE":"AFETR","EPHEMERIS_TYPE":"0","MEAN_MOTION":"15.06395017","MEAN_ELEMENT_THEORY":"SGP4","GP_ID":"193425864","FILE":"3266804","TLE_LINE1":"1 46335U 20062L   22007.70045221  .00000208  00000-0  32836-4 0  9999","INCLINATION":"53.0568","TLE_LINE2":"2 46335  53.0568   9.0897 0001563  67.4226 292.6928 15.06395017 74911","PERIAPSIS":"546.146","MEAN_MOTION_DOT":"0.00000208","DECAY_DATE":null,"OBJECT_TYPE":"PAYLOAD","ARG_OF_PERICENTER":"67.4226"},{"MEAN_MOTION_DOT":"-0.00000176","PERIAPSIS":"546.070","TLE_LINE2":"2 46336  53.0562 350.6333 0001670  54.7875 305.3270 15.06395803 75134","OBJECT_TYPE":"PAYLOAD","DECAY_DATE":null,"ARG_OF_PERICENTER":"54.7875","EPHEMERIS_TYPE":"0","SITE":"AFETR","OBJECT_ID":"2020-062M","MEAN_ELEMENT_THEORY":"SGP4","MEAN_MOTION":"15.06395803","TLE_LINE1":"1 46336U 20062M   22007.35949636 -.00000176  00000-0  71004-5 0  9990","FILE":"3266507","GP_ID":"193392870","INCLINATION":"53.0562","SEMIMAJOR_AXIS":"6925.361","BSTAR":"0.00000710040000","NORAD_CAT_ID":"46336","MEAN_MOTION_DDOT":"0.0000000000000","TIME_SYSTEM":"UTC","ELEMENT_SET_NO":"999","RCS_SIZE":"LARGE","REV_AT_EPOCH":"7513","RA_OF_ASC_NODE":"350.6333","MEAN_ANOMALY":"305.3270","OBJECT_NAME":"STARLINK-1738","REF_FRAME":"TEME","COUNTRY_CODE":"US","ECCENTRICITY":"0.00016700","LAUNCH_DATE":"2020-09-03","PERIOD":"95.592","CENTER_NAME":"EARTH","APOAPSIS":"548.383","CLASSIFICATION_TYPE":"U","EPOCH":"2022-01-07T08:37:40.485504"}];
